SCS-01 D                
1 63985U 25100D   26068.75607686  .00032471  00000+0  10528-2 0  9990
2 63985  97.3730 145.4097 0006346 266.2302  93.8214 15.31902149 45621
STARLINK-35819          
1 66285U 25247W   26068.62628744  .00018521  00000+0  63580-3 0  9999
2 66285  53.1577 191.7561 0001161  55.2080 304.9030 15.30204109 21025
